[{"OBJECT_NAME":"TEVEL2-7","OBJECT_ID":"2025-052AE","EPOCH":"2026-04-04T15:27:52.996896","MEAN_MOTION":15.29449616,"ECCENTRICITY":0.000801,"INCLINATION":97.402,"RA_OF_ASC_NODE":350.1521,"ARG_OF_PERICENTER":54.9059,"MEAN_ANOMALY":305.2931,"EPHEMERIS_TYPE":0,"CLASSIFICATION_TYPE":"U","NORAD_CAT_ID":63238,"ELEMENT_SET_NO":999,"REV_AT_EPOCH":5877,"BSTAR":0.00085708,"MEAN_MOTION_DOT":0.00024472,"MEAN_MOTION_DDOT":0},{"OBJECT_NAME":"TEVEL2-8","OBJECT_ID":"2025-052AF","EPOCH":"2026-04-04T15:38:30.956352","MEAN_MOTION":15.29428859,"ECCENTRICITY":0.0008008,"INCLINATION":97.4019,"RA_OF_ASC_NODE":350.1392,"ARG_OF_PERICENTER":55.4386,"MEAN_ANOMALY":304.7609,"EPHEMERIS_TYPE":0,"CLASSIFICATION_TYPE":"U","NORAD_CAT_ID":63239,"ELEMENT_SET_NO":999,"REV_AT_EPOCH":5877,"BSTAR":0.00086447,"MEAN_MOTION_DOT":0.00024668,"MEAN_MOTION_DDOT":0},{"OBJECT_NAME":"HADES-ICM","OBJECT_ID":"2025-052BN","EPOCH":"2026-04-04T15:46:44.436864","MEAN_MOTION":15.66745163,"ECCENTRICITY":0.0006332,"INCLINATION":97.3881,"RA_OF_ASC_NODE":356.2102,"ARG_OF_PERICENTER":75.7358,"MEAN_ANOMALY":284.4605,"EPHEMERIS_TYPE":0,"CLASSIFICATION_TYPE":"U","NORAD_CAT_ID":63492,"ELEMENT_SET_NO":999,"REV_AT_EPOCH":5919,"BSTAR":0.0024298,"MEAN_MOTION_DOT":0.00263226,"MEAN_MOTION_DDOT":0},{"OBJECT_NAME":"FORESAIL-1 PRIME","OBJECT_ID":"2025-276DS","EPOCH":"2026-04-04T18:41:14.873568","MEAN_MOTION":15.18033653,"ECCENTRICITY":0.00028224,"INCLINATION":97.4233,"RA_OF_ASC_NODE":169.4181,"ARG_OF_PERICENTER":37.9013,"MEAN_ANOMALY":322.2419,"EPHEMERIS_TYPE":0,"CLASSIFICATION_TYPE":"U","NORAD_CAT_ID":66778,"ELEMENT_SET_NO":999,"REV_AT_EPOCH":1926,"BSTAR":0.00038896681,"MEAN_MOTION_DOT":7.853e-5,"MEAN_MOTION_DDOT":0}]
