{"fetched_at":"2026-04-05T12:57:33Z","count":17389,"tles":[{"name":"TEVEL2-8","line1":"1 63239U 25052AF  26094.65174718  .00024668  00000+0  86447-3 0  9994","line2":"2 63239  97.4019 350.1392 0008008  55.4386 304.7609 15.29428859 58774","category":"Other"},{"name":"TEVEL2-7","line1":"1 63238U 25052AE  26094.64436339  .00024472  00000+0  85708-3 0  9994","line2":"2 63238  97.4020 350.1521 0008010  54.9059 305.2931 15.29449616 58771","category":"Other"},{"name":"FORESAIL-1 PRIME","line1":"1 66778U 25276DS  26094.77864437  .00007853  00000+0  38897-3 0  9993","line2":"2 66778  97.4233 169.4181 0002822  37.9013 322.2419 15.18033653 19267","category":"Other"},{"name":"HADES-ICM","line1":"1 63492U 25052BN  26094.65745876  .00263226  00000+0  24298-2 0  9994","line2":"2 63492  97.3881 356.2102 0006332  75.7358 284.4605 15.66745163 59197","category":"Other"}]}